{
  "type": "FeatureCollection",
  "features": [
    {
      "type": "Feature",
      "properties": {
        "norad_id": 33376,
        "name": "GALAXY 19 (G-19)",
        "group": "intelsat",
        "lat": -0.011148221648274267,
        "lon": -35.132066487354415,
        "alt_km": 35781.5560693551,
        "timestamp": "2025-12-11T22:43:46.939571+00:00",
        "meta_object_name": "GALAXY 19 (G-19)",
        "meta_object_id": "2008-045A",
        "meta_epoch": "2025-12-11T13:03:02.710368",
        "meta_mean_motion": 1.00269689,
        "meta_eccentricity": 0.00026763,
        "meta_inclination": 0.0171,
        "meta_ra_of_asc_node": 347.0114,
        "meta_arg_of_pericenter": 274.7909,
        "meta_mean_anomaly": 277.4643,
        "meta_ephemeris_type": 0,
        "meta_classification_type": "U",
        "meta_norad_cat_id": 33376,
        "meta_element_set_no": 999,
        "meta_rev_at_epoch": 6302,
        "meta_bstar": 0,
        "meta_mean_motion_dot": 0,
        "meta_mean_motion_ddot": 0,
        "tle_line1": "1 33376U 08045A   25345.54378137  .00000000  00000+0  00000+0 0  9994",
        "tle_line2": "2 33376   0.0171 347.0114 0002676 274.7909 277.4643  1.00269689 63027"
      },
      "geometry": {
        "type": "Point",
        "coordinates": [
          -35.132066487354415,
          -0.011148221648274267
        ]
      }
    },
    {
      "type": "Feature",
      "properties": {
        "norad_id": 35493,
        "name": "FM-5",
        "group": "intelsat",
        "lat": 0.011249183981371005,
        "lon": -24.304806295341304,
        "alt_km": 35788.66257305955,
        "timestamp": "2025-12-11T22:43:46.939582+00:00",
        "meta_object_name": "FM-5",
        "meta_object_id": "2009-034A",
        "meta_epoch": "2025-12-11T09:40:42.954816",
        "meta_mean_motion": 1.00270591,
        "meta_eccentricity": 5.374e-05,
        "meta_inclination": 0.0147,
        "meta_ra_of_asc_node": 294.8503,
        "meta_arg_of_pericenter": 232.2945,
        "meta_mean_anomaly": 332.2538,
        "meta_ephemeris_type": 0,
        "meta_classification_type": "U",
        "meta_norad_cat_id": 35493,
        "meta_element_set_no": 999,
        "meta_rev_at_epoch": 4476,
        "meta_bstar": 0,
        "meta_mean_motion_dot": -1.93e-06,
        "meta_mean_motion_ddot": 0,
        "tle_line1": "1 35493U 09034A   25345.40327494 -.00000193  00000+0  00000+0 0  9994",
        "tle_line2": "2 35493   0.0147 294.8503 0000537 232.2945 332.2538  1.00270591 44763"
      },
      "geometry": {
        "type": "Point",
        "coordinates": [
          -24.304806295341304,
          0.011249183981371005
        ]
      }
    },
    {
      "type": "Feature",
      "properties": {
        "norad_id": 36097,
        "name": "INTELSAT 14 (IS-14)",
        "group": "intelsat",
        "lat": 0.007068609734259847,
        "lon": 16.862777429813335,
        "alt_km": 35790.129743189915,
        "timestamp": "2025-12-11T22:43:46.939595+00:00",
        "meta_object_name": "INTELSAT 14 (IS-14)",
        "meta_object_id": "2009-064A",
        "meta_epoch": "2025-12-11T00:50:38.714784",
        "meta_mean_motion": 1.00270021,
        "meta_eccentricity": 0.00026105,
        "meta_inclination": 0.0102,
        "meta_ra_of_asc_node": 18.0466,
        "meta_arg_of_pericenter": 250.6315,
        "meta_mean_anomaly": 138.984,
        "meta_ephemeris_type": 0,
        "meta_classification_type": "U",
        "meta_norad_cat_id": 36097,
        "meta_element_set_no": 999,
        "meta_rev_at_epoch": 5871,
        "meta_bstar": 0,
        "meta_mean_motion_dot": -2.68e-06,
        "meta_mean_motion_ddot": 0,
        "tle_line1": "1 36097U 09064A   25345.03517031 -.00000268  00000+0  00000+0 0  9998",
        "tle_line2": "2 36097   0.0102  18.0466 0002610 250.6315 138.9840  1.00270021 58713"
      },
      "geometry": {
        "type": "Point",
        "coordinates": [
          16.862777429813335,
          0.007068609734259847
        ]
      }
    },
    {
      "type": "Feature",
      "properties": {
        "norad_id": 36106,
        "name": "INTELSAT 15 (IS-15)",
        "group": "intelsat",
        "lat": -0.0126996185419419,
        "lon": 146.96020924319524,
        "alt_km": 35791.79570891787,
        "timestamp": "2025-12-11T22:43:46.939607+00:00",
        "meta_object_name": "INTELSAT 15 (IS-15)",
        "meta_object_id": "2009-067A",
        "meta_epoch": "2025-12-11T01:39:38.885184",
        "meta_mean_motion": 1.00270749,
        "meta_eccentricity": 0.00023872,
        "meta_inclination": 0.024,
        "meta_ra_of_asc_node": 289.4565,
        "meta_arg_of_pericenter": 339.7099,
        "meta_mean_anomaly": 280.9264,
        "meta_ephemeris_type": 0,
        "meta_classification_type": "U",
        "meta_norad_cat_id": 36106,
        "meta_element_set_no": 999,
        "meta_rev_at_epoch": 3934,
        "meta_bstar": 0,
        "meta_mean_motion_dot": -1.79e-06,
        "meta_mean_motion_ddot": 0,
        "tle_line1": "1 36106U 09067A   25345.06920006 -.00000179  00000+0  00000+0 0  9996",
        "tle_line2": "2 36106   0.0240 289.4565 0002387 339.7099 280.9264  1.00270749 39343"
      },
      "geometry": {
        "type": "Point",
        "coordinates": [
          146.96020924319524,
          -0.0126996185419419
        ]
      }
    },
    {
      "type": "Feature",
      "properties": {
        "norad_id": 36131,
        "name": "DIRECTV 12",
        "group": "intelsat",
        "lat": -0.007711572294183114,
        "lon": -40.88309780667454,
        "alt_km": 35784.85816304727,
        "timestamp": "2025-12-11T22:43:46.939619+00:00",
        "meta_object_name": "DIRECTV 12",
        "meta_object_id": "2009-075A",
        "meta_epoch": "2025-12-10T23:19:34.847904",
        "meta_mean_motion": 1.0027091,
        "meta_eccentricity": 4.062e-05,
        "meta_inclination": 0.04,
        "meta_ra_of_asc_node": 149.0502,
        "meta_arg_of_pericenter": 199.7409,
        "meta_mean_anomaly": 338.3242,
        "meta_ephemeris_type": 0,
        "meta_classification_type": "U",
        "meta_norad_cat_id": 36131,
        "meta_element_set_no": 999,
        "meta_rev_at_epoch": 4466,
        "meta_bstar": 0,
        "meta_mean_motion_dot": -9.8e-07,
        "meta_mean_motion_ddot": 0,
        "tle_line1": "1 36131U 09075A   25344.97193111 -.00000098  00000+0  00000+0 0  9991",
        "tle_line2": "2 36131   0.0400 149.0502 0000406 199.7409 338.3242  1.00270910 44665"
      },
      "geometry": {
        "type": "Point",
        "coordinates": [
          -40.88309780667454,
          -0.007711572294183114
        ]
      }
    },
    {
      "type": "Feature",
      "properties": {
        "norad_id": 36397,
        "name": "INTELSAT 16 (IS-16)",
        "group": "intelsat",
        "lat": 0.008221294310888435,
        "lon": -14.330481785767457,
        "alt_km": 35784.99136004674,
        "timestamp": "2025-12-11T22:43:46.939631+00:00",
        "meta_object_name": "INTELSAT 16 (IS-16)",
        "meta_object_id": "2010-006A",
        "meta_epoch": "2025-12-11T13:08:54.648672",
        "meta_mean_motion": 1.00272356,
        "meta_eccentricity": 0.00021373,
        "meta_inclination": 0.0099,
        "meta_ra_of_asc_node": 322.6692,
        "meta_arg_of_pericenter": 299.1512,
        "meta_mean_anomaly": 299.7174,
        "meta_ephemeris_type": 0,
        "meta_classification_type": "U",
        "meta_norad_cat_id": 36397,
        "meta_element_set_no": 999,
        "meta_rev_at_epoch": 5777,
        "meta_bstar": 0,
        "meta_mean_motion_dot": -2.38e-06,
        "meta_mean_motion_ddot": 0,
        "tle_line1": "1 36397U 10006A   25345.54785473 -.00000238  00000+0  00000+0 0  9999",
        "tle_line2": "2 36397   0.0099 322.6692 0002137 299.1512 299.7174  1.00272356 57771"
      },
      "geometry": {
        "type": "Point",
        "coordinates": [
          -14.330481785767457,
          0.008221294310888435
        ]
      }
    },
    {
      "type": "Feature",
      "properties": {
        "norad_id": 37185,
        "name": "XM-5",
        "group": "intelsat",
        "lat": 0.02364180638167679,
        "lon": -53.36340374168919,
        "alt_km": 35792.512084896116,
        "timestamp": "2025-12-11T22:43:46.939643+00:00",
        "meta_object_name": "XM-5",
        "meta_object_id": "2010-053A",
        "meta_epoch": "2025-12-10T23:47:38.631840",
        "meta_mean_motion": 1.00269536,
        "meta_eccentricity": 0.00014999,
        "meta_inclination": 0.0597,
        "meta_ra_of_asc_node": 272.8413,
        "meta_arg_of_pericenter": 236.063,
        "meta_mean_anomaly": 172.7615,
        "meta_ephemeris_type": 0,
        "meta_classification_type": "U",
        "meta_norad_cat_id": 37185,
        "meta_element_set_no": 999,
        "meta_rev_at_epoch": 5559,
        "meta_bstar": 0,
        "meta_mean_motion_dot": -1.7e-07,
        "meta_mean_motion_ddot": 0,
        "tle_line1": "1 37185U 10053A   25344.99141935 -.00000017  00000+0  00000+0 0  9999",
        "tle_line2": "2 37185   0.0597 272.8413 0001499 236.0630 172.7615  1.00269536 55592"
      },
      "geometry": {
        "type": "Point",
        "coordinates": [
          -53.36340374168919,
          0.02364180638167679
        ]
      }
    }
  ]
}